{"fetched_at":"2026-07-20T07:40:25.481Z","source":"https://celestrak.org/NORAD/elements/gp.php?GROUP=planet&FORMAT=JSON","constellation":"superdove","records":[{"OBJECT_NAME":"FLOCK 4Q-16","OBJECT_ID":"2023-174R","EPOCH":"2026-07-19T18:30:55.511712","CLASSIFICATION_TYPE":"U","MEAN_MOTION":15.50498968,"ECCENTRICITY":0.0006605,"INCLINATION":97.3814,"RA_OF_ASC_NODE":289.6655,"ARG_OF_PERICENTER":63.8698,"MEAN_ANOMALY":296.3232,"EPHEMERIS_TYPE":0,"NORAD_CAT_ID":58271,"ELEMENT_SET_NO":999,"REV_AT_EPOCH":15062,"BSTAR":0.00023385,"MEAN_MOTION_DOT":0.00013257,"MEAN_MOTION_DDOT":0},{"OBJECT_NAME":"FLOCK 4Q-11","OBJECT_ID":"2023-174T","EPOCH":"2026-07-19T19:22:50.596320","CLASSIFICATION_TYPE":"U","MEAN_MOTION":15.51018383,"ECCENTRICITY":0.0006043,"INCLINATION":97.3849,"RA_OF_ASC_NODE":290.3436,"ARG_OF_PERICENTER":57.7457,"MEAN_ANOMALY":302.4379,"EPHEMERIS_TYPE":0,"NORAD_CAT_ID":58273,"ELEMENT_SET_NO":999,"REV_AT_EPOCH":15064,"BSTAR":0.00031764,"MEAN_MOTION_DOT":0.00018385,"MEAN_MOTION_DDOT":0},{"OBJECT_NAME":"FLOCK 4Q-28","OBJECT_ID":"2023-174AA","EPOCH":"2026-07-19T18:41:11.262048","CLASSIFICATION_TYPE":"U","MEAN_MOTION":15.56935935,"ECCENTRICITY":0.000438,"INCLINATION":97.3874,"RA_OF_ASC_NODE":293.093,"ARG_OF_PERICENTER":49.0281,"MEAN_ANOMALY":311.1352,"EPHEMERIS_TYPE":0,"NORAD_CAT_ID":58280,"ELEMENT_SET_NO":999,"REV_AT_EPOCH":15081,"BSTAR":0.00024889,"MEAN_MOTION_DOT":0.00017833,"MEAN_MOTION_DDOT":0},{"OBJECT_NAME":"FLOCK 4Q-27","OBJECT_ID":"2023-174AC","EPOCH":"2026-07-19T18:42:55.221120","CLASSIFICATION_TYPE":"U","MEAN_MOTION":15.5714789,"ECCENTRICITY":0.000354,"INCLINATION":97.3803,"RA_OF_ASC_NODE":292.4976,"ARG_OF_PERICENTER":55.4692,"MEAN_ANOMALY":304.6897,"EPHEMERIS_TYPE":0,"NORAD_CAT_ID":58282,"ELEMENT_SET_NO":999,"REV_AT_EPOCH":15082,"BSTAR":0.00029582,"MEAN_MOTION_DOT":0.0002139,"MEAN_MOTION_DDOT":0},{"OBJECT_NAME":"FLOCK 4Q-7","OBJECT_ID":"2023-174BQ","EPOCH":"2026-07-19T19:07:20.711136","CLASSIFICATION_TYPE":"U","MEAN_MOTION":15.57562253,"ECCENTRICITY":0.0004171,"INCLINATION":97.3901,"RA_OF_ASC_NODE":293.444,"ARG_OF_PERICENTER":25.8466,"MEAN_ANOMALY":334.2997,"EPHEMERIS_TYPE":0,"NORAD_CAT_ID":58318,"ELEMENT_SET_NO":999,"REV_AT_EPOCH":15082,"BSTAR":0.00028787,"MEAN_MOTION_DOT":0.00021138,"MEAN_MOTION_DDOT":0},{"OBJECT_NAME":"FLOCK 4Q-2","OBJECT_ID":"2023-174BS","EPOCH":"2026-07-19T20:34:04.018944","CLASSIFICATION_TYPE":"U","MEAN_MOTION":15.50970143,"ECCENTRICITY":0.0004324,"INCLINATION":97.3835,"RA_OF_ASC_NODE":290.1057,"ARG_OF_PERICENTER":36.3496,"MEAN_ANOMALY":323.8049,"EPHEMERIS_TYPE":0,"NORAD_CAT_ID":58320,"ELEMENT_SET_NO":999,"REV_AT_EPOCH":15066,"BSTAR":0.00026164,"MEAN_MOTION_DOT":0.0001509,"MEAN_MOTION_DDOT":0},{"OBJECT_NAME":"FLOCK 4Q-9","OBJECT_ID":"2023-174BU","EPOCH":"2026-07-19T19:22:57.962784","CLASSIFICATION_TYPE":"U","MEAN_MOTION":15.51504027,"ECCENTRICITY":0.0005168,"INCLINATION":97.3842,"RA_OF_ASC_NODE":290.1711,"ARG_OF_PERICENTER":35.1525,"MEAN_ANOMALY":325.0067,"EPHEMERIS_TYPE":0,"NORAD_CAT_ID":58322,"ELEMENT_SET_NO":999,"REV_AT_EPOCH":15064,"BSTAR":0.00028181,"MEAN_MOTION_DOT":0.00016578,"MEAN_MOTION_DDOT":0},{"OBJECT_NAME":"FLOCK 4Q-4","OBJECT_ID":"2023-174BZ","EPOCH":"2026-07-19T18:16:57.860256","CLASSIFICATION_TYPE":"U","MEAN_MOTION":15.49991081,"ECCENTRICITY":0.0005406,"INCLINATION":97.3819,"RA_OF_ASC_NODE":289.227,"ARG_OF_PERICENTER":62.0541,"MEAN_ANOMALY":298.1257,"EPHEMERIS_TYPE":0,"NORAD_CAT_ID":58327,"ELEMENT_SET_NO":999,"REV_AT_EPOCH":15060,"BSTAR":0.00024287,"MEAN_MOTION_DOT":0.00013522,"MEAN_MOTION_DDOT":0},{"OBJECT_NAME":"FLOCK 4Q-13","OBJECT_ID":"2023-174CA","EPOCH":"2026-07-19T20:48:11.989152","CLASSIFICATION_TYPE":"U","MEAN_MOTION":15.53013524,"ECCENTRICITY":0.0005581,"INCLINATION":97.3992,"RA_OF_ASC_NODE":292.6723,"ARG_OF_PERICENTER":41.3014,"MEAN_ANOMALY":318.866,"EPHEMERIS_TYPE":0,"NORAD_CAT_ID":58328,"ELEMENT_SET_NO":999,"REV_AT_EPOCH":15074,"BSTAR":0.00025156,"MEAN_MOTION_DOT":0.00015611,"MEAN_MOTION_DDOT":0},{"OBJECT_NAME":"FLOCK 4BE-18","OBJECT_ID":"2024-149N","EPOCH":"2026-07-19T18:41:52.588032","CLASSIFICATION_TYPE":"U","MEAN_MOTION":15.42805964,"ECCENTRICITY":0.0005409,"INCLINATION":97.3716,"RA_OF_ASC_NODE":284.8715,"ARG_OF_PERICENTER":132.6864,"MEAN_ANOMALY":227.484,"EPHEMERIS_TYPE":0,"NORAD_CAT_ID":60480,"ELEMENT_SET_NO":999,"REV_AT_EPOCH":10733,"BSTAR":0.00022929,"MEAN_MOTION_DOT":0.00009958,"MEAN_MOTION_DDOT":0},{"OBJECT_NAME":"FLOCK 4BE-7","OBJECT_ID":"2024-149P","EPOCH":"2026-07-19T18:01:27.238080","CLASSIFICATION_TYPE":"U","MEAN_MOTION":15.41594911,"ECCENTRICITY":0.0004482,"INCLINATION":97.3744,"RA_OF_ASC_NODE":284.127,"ARG_OF_PERICENTER":137.8395,"MEAN_ANOMALY":222.3197,"EPHEMERIS_TYPE":0,"NORAD_CAT_ID":60481,"ELEMENT_SET_NO":999,"REV_AT_EPOCH":10726,"BSTAR":0.00033731,"MEAN_MOTION_DOT":0.00014112,"MEAN_MOTION_DDOT":0},{"OBJECT_NAME":"FLOCK 4BE-36","OBJECT_ID":"2024-149U","EPOCH":"2026-07-19T16:02:19.586400","CLASSIFICATION_TYPE":"U","MEAN_MOTION":15.4363213,"ECCENTRICITY":0.0005091,"INCLINATION":97.3734,"RA_OF_ASC_NODE":285.5066,"ARG_OF_PERICENTER":140.2129,"MEAN_ANOMALY":219.9493,"EPHEMERIS_TYPE":0,"NORAD_CAT_ID":60486,"ELEMENT_SET_NO":999,"REV_AT_EPOCH":10736,"BSTAR":0.00022597,"MEAN_MOTION_DOT":0.00010089,"MEAN_MOTION_DDOT":0},{"OBJECT_NAME":"FLOCK 4BE-25","OBJECT_ID":"2024-149V","EPOCH":"2026-07-19T18:53:41.282304","CLASSIFICATION_TYPE":"U","MEAN_MOTION":15.39621177,"ECCENTRICITY":0.0003922,"INCLINATION":97.3784,"RA_OF_ASC_NODE":284.1764,"ARG_OF_PERICENTER":131.7493,"MEAN_ANOMALY":228.4089,"EPHEMERIS_TYPE":0,"NORAD_CAT_ID":60487,"ELEMENT_SET_NO":999,"REV_AT_EPOCH":10725,"BSTAR":0.00020873,"MEAN_MOTION_DOT":0.00008142,"MEAN_MOTION_DDOT":0},{"OBJECT_NAME":"FLOCK 4BE-31","OBJECT_ID":"2024-149W","EPOCH":"2026-07-19T17:34:17.265792","CLASSIFICATION_TYPE":"U","MEAN_MOTION":15.45268472,"ECCENTRICITY":0.0004083,"INCLINATION":97.3787,"RA_OF_ASC_NODE":286.5284,"ARG_OF_PERICENTER":139.5117,"MEAN_ANOMALY":220.6436,"EPHEMERIS_TYPE":0,"NORAD_CAT_ID":60488,"ELEMENT_SET_NO":999,"REV_AT_EPOCH":10740,"BSTAR":0.00025167,"MEAN_MOTION_DOT":0.0001189,"MEAN_MOTION_DDOT":0},{"OBJECT_NAME":"FLOCK 4BE-20","OBJECT_ID":"2024-149X","EPOCH":"2026-07-19T18:23:54.101760","CLASSIFICATION_TYPE":"U","MEAN_MOTION":15.38882243,"ECCENTRICITY":0.0005317,"INCLINATION":97.3682,"RA_OF_ASC_NODE":282.9523,"ARG_OF_PERICENTER":140.669,"MEAN_ANOMALY":219.4943,"EPHEMERIS_TYPE":0,"NORAD_CAT_ID":60489,"ELEMENT_SET_NO":999,"REV_AT_EPOCH":10722,"BSTAR":0.00017799,"MEAN_MOTION_DOT":0.00006765,"MEAN_MOTION_DDOT":0},{"OBJECT_NAME":"FLOCK 4BE-23","OBJECT_ID":"2024-149Y","EPOCH":"2026-07-19T18:22:46.230240","CLASSIFICATION_TYPE":"U","MEAN_MOTION":15.38437927,"ECCENTRICITY":0.0004988,"INCLINATION":97.3768,"RA_OF_ASC_NODE":283.3443,"ARG_OF_PERICENTER":144.006,"MEAN_ANOMALY":216.1522,"EPHEMERIS_TYPE":0,"NORAD_CAT_ID":60490,"ELEMENT_SET_NO":999,"REV_AT_EPOCH":10720,"BSTAR":0.00020482,"MEAN_MOTION_DOT":0.00007685,"MEAN_MOTION_DDOT":0}]}
