FLOCK 4Q-16             
1 58271U 23174R   26200.77147583  .00013257  00000+0  23385-3 0  9993
2 58271  97.3814 289.6655 0006605  63.8698 296.3232 15.50498968150621
FLOCK 4Q-11             
1 58273U 23174T   26200.80753005  .00018385  00000+0  31764-3 0  9998
2 58273  97.3849 290.3436 0006043  57.7457 302.4379 15.51018383150641
FLOCK 4Q-28             
1 58280U 23174AA  26200.77860257  .00017833  00000+0  24889-3 0  9997
2 58280  97.3874 293.0930 0004380  49.0281 311.1352 15.56935935150810
FLOCK 4Q-27             
1 58282U 23174AC  26200.77980580  .00021390  00000+0  29582-3 0  9999
2 58282  97.3803 292.4976 0003540  55.4692 304.6897 15.57147890150829
FLOCK 4Q-7              
1 58318U 23174BQ  26200.79676749  .00021138  00000+0  28787-3 0  9996
2 58318  97.3901 293.4440 0004171  25.8466 334.2997 15.57562253150820
FLOCK 4Q-2              
1 58320U 23174BS  26200.85699096  .00015090  00000+0  26164-3 0  9993
2 58320  97.3835 290.1057 0004324  36.3496 323.8049 15.50970143150665
FLOCK 4Q-9              
1 58322U 23174BU  26200.80761531  .00016578  00000+0  28181-3 0  9997
2 58322  97.3842 290.1711 0005168  35.1525 325.0067 15.51504027150646
FLOCK 4Q-4              
1 58327U 23174BZ  26200.76178079  .00013522  00000+0  24287-3 0  9995
2 58327  97.3819 289.2270 0005406  62.0541 298.1257 15.49991081150600
FLOCK 4Q-13             
1 58328U 23174CA  26200.86680543  .00015611  00000+0  25156-3 0  9998
2 58328  97.3992 292.6723 0005581  41.3014 318.8660 15.53013524150748
FLOCK 4BE-18            
1 60480U 24149N   26200.77908088  .00009958  00000+0  22929-3 0  9992
2 60480  97.3716 284.8715 0005409 132.6864 227.4840 15.42805964107331
FLOCK 4BE-7             
1 60481U 24149P   26200.75100970  .00014112  00000+0  33731-3 0  9996
2 60481  97.3744 284.1270 0004482 137.8395 222.3197 15.41594911107265
FLOCK 4BE-36            
1 60486U 24149U   26200.66828225  .00010089  00000+0  22597-3 0  9998
2 60486  97.3734 285.5066 0005091 140.2129 219.9493 15.43632130107367
FLOCK 4BE-25            
1 60487U 24149V   26200.78728336  .00008142  00000+0  20873-3 0  9996
2 60487  97.3784 284.1764 0003922 131.7493 228.4089 15.39621177107251
FLOCK 4BE-31            
1 60488U 24149W   26200.73214428  .00011890  00000+0  25167-3 0  9999
2 60488  97.3787 286.5284 0004083 139.5117 220.6436 15.45268472107405
FLOCK 4BE-20            
1 60489U 24149X   26200.76659840  .00006765  00000+0  17799-3 0  9991
2 60489  97.3682 282.9523 0005317 140.6690 219.4943 15.38882243107225
FLOCK 4BE-23            
1 60490U 24149Y   26200.76581285  .00007685  00000+0  20482-3 0  9995
2 60490  97.3768 283.3443 0004988 144.0060 216.1522 15.38437927107200
